norad_id,name,regime,epoch,line1,line2,inclination,eccentricity,mean_motion,raan,arg_pericenter,mean_anomaly
43015,MIRATA,LEO,21006.79049261,1 43015U 17073C   21006.79049261  .00001232  00000-0  98576-4 0    19\,2 43015  97.7136 277.2378 0252819 104.8898 258.0458 14.80184981169292,97.7136,0.0252819,14.80184981,277.2378,104.8898,258.0458
43015,MIRATA,LEO,21007.46650283,1 43015U 17073C   21007.46650283  .00001136  00000-0  91293-4 0    18\,2 43015  97.7135 277.8882 0252830 102.6959 260.2642 14.80185924169393,97.7135,0.025283,14.80185924,277.8882,102.6959,260.2642
43015,MIRATA,LEO,21007.80450752,1 43015U 17073C   21007.80450752  .00001103  00000-0  88813-4 0    13\,2 43015  97.7135 278.2134 0252835 101.5985 261.3723 14.80186474169449,97.7135,0.0252835,14.80186474,278.2134,101.5985,261.3723
43015,MIRATA,LEO,21008.27771343,1 43015U 17073C   21008.27771343  .00001100  00000-0  88548-4 0    19\,2 43015  97.7136 278.6687 0252842 100.0613 262.9228 14.80187455169512,97.7136,0.0252842,14.80187455,278.6687,100.0613,262.9228
43015,MIRATA,LEO,21009.02132117,1 43015U 17073C   21009.02132117  .00001050  00000-0  84776-4 0  9790\,2 43015  97.7136 279.3841 0252851  97.6480 265.3525 14.80188820169621,97.7136,0.0252851,14.8018882,279.3841,97.648,265.3525
43015,MIRATA,LEO,21009.49452513,1 43015U 17073C   21009.49452513  .00001063  00000-0  85703-4 0    17\,2 43015  97.7135 279.8393 0252854  96.1100 266.8983 14.80189943169691,97.7135,0.0252854,14.80189943,279.8393,96.11,266.8983
43015,MIRATA,LEO,21009.69732648,1 43015U 17073C   21009.69732648  .00001053  00000-0  84963-4 0    15\,2 43015  97.7135 280.0344 0252852  95.4508 267.5602 14.80190406169729,97.7135,0.0252852,14.80190406,280.0344,95.4508,267.5602
43015,MIRATA,LEO,21010.30573024,1 43015U 17073C   21010.30573024  .00001035  00000-0  83620-4 0    15\,2 43015  97.7136 280.6197 0252859  93.4753 269.5415 14.80191636169819,97.7136,0.0252859,14.80191636,280.6197,93.4753,269.5415
43015,MIRATA,LEO,21010.71133187,1 43015U 17073C   21010.71133187  .00001034  00000-0  83560-4 0    14\,2 43015  97.7135 281.0099 0252860  92.1577 270.8610 14.80192566169877,97.7135,0.025286,14.80192566,281.0099,92.1577,270.861
43015,MIRATA,LEO,21011.45493370,1 43015U 17073C   21011.45493370  .00001048  00000-0  84609-4 0    19\,2 43015  97.7135 281.7252 0252864  89.7442 273.2741 14.80194230169986,97.7135,0.0252864,14.8019423,281.7252,89.7442,273.2741
43015,MIRATA,LEO,21011.79293402,1 43015U 17073C   21011.79293402  .00001012  00000-0  81852-4 0    18\,2 43015  97.7135 282.0504 0252862  88.6452 274.3711 14.80194755170036,97.7135,0.0252862,14.80194755,282.0504,88.6452,274.3711
43015,MIRATA,LEO,21012.46893177,1 43015U 17073C   21012.46893177  .00001383  00000-0  10997-3 0    10\,2 43015  97.7136 282.7008 0252850  86.4482 276.5610 14.80198637170135,97.7136,0.025285,14.80198637,282.7008,86.4482,276.561
43015,MIRATA,LEO,21012.73933166,1 43015U 17073C   21012.73933166  .00001198  00000-0  95924-4 0    11\,2 43015  97.7137 282.9610 0252846  85.5703 277.4349 14.80198073170175,97.7137,0.0252846,14.80198073,282.961,85.5703,277.4349
43015,MIRATA,LEO,21013.00973097,1 43015U 17073C   21013.00973097  .00001139  00000-0  91453-4 0  9847\,2 43015  97.7137 283.2211 0252846  84.6925 278.3080 14.80198258170214,97.7137,0.0252846,14.80198258,283.2211,84.6925,278.308
43015,MIRATA,LEO,21013.28012978,1 43015U 17073C   21013.28012978  .00001142  00000-0  91747-4 0    19\,2 43015  97.7137 283.4812 0252848  83.8140 279.1812 14.80198882170254,97.7137,0.0252848,14.80198882,283.4812,83.814,279.1812
43015,MIRATA,LEO,21013.68572723,1 43015U 17073C   21013.68572723  .00001165  00000-0  93487-4 0    10\,2 43015  97.7137 283.8714 0252840  82.4962 280.4897 14.80200001170310,97.7137,0.025284,14.80200001,283.8714,82.4962,280.4897
43015,MIRATA,LEO,21014.15892372,1 43015U 17073C   21014.15892372  .00001151  00000-0  92400-4 0  9858\,2 43015  97.7137 284.3266 0252838  80.9617 282.0114 14.80201069170387,97.7137,0.0252838,14.80201069,284.3266,80.9617,282.0114
43015,MIRATA,LEO,21014.49692095,1 43015U 17073C   21014.49692095  .00001145  00000-0  91977-4 0    15\,2 43015  97.7137 284.6518 0252833  79.8631 283.0997 14.80201770170433,97.7137,0.0252833,14.8020177,284.6518,79.8631,283.0997
43015,MIRATA,LEO,21014.69971914,1 43015U 17073C   21014.69971914  .00001106  00000-0  88970-4 0    13\,2 43015  97.7137 284.8469 0252834  79.2042 283.7519 14.80202021170461,97.7137,0.0252834,14.80202021,284.8469,79.2042,283.7519
43015,MIRATA,LEO,21015.24051339,1 43015U 17073C   21015.24051339  .00001113  00000-0  89500-4 0    13\,2 43015  97.7137 285.3671 0252831  77.4497 285.4868 14.80203340170543,97.7137,0.0252831,14.8020334,285.3671,77.4497,285.4868
43015,MIRATA,LEO,21015.71370759,1 43015U 17073C   21015.71370759  .00001080  00000-0  87048-4 0    13\,2 43015  97.7136 285.8224 0252816  75.9116 287.0053 14.80204268170617,97.7136,0.0252816,14.80204268,285.8224,75.9116,287.0053
43015,MIRATA,LEO,21016.45729718,1 43015U 17073C   21016.45729718  .00001106  00000-0  88984-4 0    17\,2 43015  97.7136 286.5378 0252795  73.4958 289.3866 14.80206042170729,97.7136,0.0252795,14.80206042,286.5378,73.4958,289.3866
43015,MIRATA,LEO,21016.72769269,1 43015U 17073C   21016.72769269  .00001140  00000-0  91561-4 0    15\,2 43015  97.7136 286.7979 0252784  72.6172 290.2513 14.80206929170763,97.7136,0.0252784,14.80206929,286.7979,72.6172,290.2513
43015,MIRATA,LEO,21017.47127991,1 43015U 17073C   21017.47127991  .00001175  00000-0  94286-4 0    13\,2 43015  97.7136 287.5133 0252767  70.2016 292.6259 14.80208744170878,97.7136,0.0252767,14.80208744,287.5133,70.2016,292.6259
43015,MIRATA,LEO,21017.67407596,1 43015U 17073C   21017.67407596  .00001163  00000-0  93341-4 0    15\,2 43015  97.7136 287.7084 0252759  69.5426 293.2727 14.80209200170901,97.7136,0.0252759,14.802092,287.7084,69.5426,293.2727
43015,MIRATA,LEO,21018.28246390,1 43015U 17073C   21018.28246390  .00001181  00000-0  94693-4 0    17\,2 43015  97.7136 288.2938 0252752  67.5680 295.2093 14.80210632170996,97.7136,0.0252752,14.80210632,288.2938,67.568,295.2093
43015,MIRATA,LEO,21018.68805498,1 43015U 17073C   21018.68805498  .00001211  00000-0  97031-4 0    14\,2 43015  97.7136 288.6839 0252745  66.2503 296.4999 14.80211756171056,97.7136,0.0252745,14.80211756,288.6839,66.2503,296.4999
43015,MIRATA,LEO,21019.49923549,1 43015U 17073C   21019.49923549  .00001217  00000-0  97499-4 0    16\,2 43015  97.7134 289.4643 0252715  63.6157 299.0760 14.80213715171174,97.7134,0.0252715,14.80213715,289.4643,63.6157,299.076
43015,MIRATA,LEO,21019.70203049,1 43015U 17073C   21019.70203049  .00001198  00000-0  96028-4 0    11\,2 43015  97.7134 289.6594 0252710  62.9549 299.7214 14.80214055171206,97.7134,0.025271,14.80214055,289.6594,62.9549,299.7214
43015,MIRATA,LEO,21020.31041417,1 43015U 17073C   21020.31041417  .00001223  00000-0  97967-4 0    11\,2 43015  97.7134 290.2447 0252686  60.9792 301.6487 14.80215628171292,97.7134,0.0252686,14.80215628,290.2447,60.9792,301.6487
43015,MIRATA,LEO,21020.71600229,1 43015U 17073C   21020.71600229  .00001417  00000-0  11260-3 0    13\,2 43015  97.7133 290.6349 0252670  59.6580 302.9360 14.80217740171357,97.7133,0.025267,14.8021774,290.6349,59.658,302.936
43015,MIRATA,LEO,21021.45958000,1 43015U 17073C   21021.45958000  .00001302  00000-0  10392-3 0    16\,2 43015  97.7134 291.3504 0252635  57.2443 305.2844 14.80218839171467,97.7134,0.0252635,14.80218839,291.3504,57.2443,305.2844
43015,MIRATA,LEO,21021.72997125,1 43015U 17073C   21021.72997125  .00001351  00000-0  10771-3 0    12\,2 43015  97.7134 291.6105 0252619  56.3645 306.1393 14.80219830171509,97.7134,0.0252619,14.8021983,291.6105,56.3645,306.1393
43015,MIRATA,LEO,21022.40594869,1 43015U 17073C   21022.40594869  .00001390  00000-0  11067-3 0    18\,2 43015  97.7134 292.2609 0252596  54.1681 308.2715 14.80221726171604,97.7134,0.0252596,14.80221726,292.2609,54.1681,308.2715
43015,MIRATA,LEO,21022.67633942,1 43015U 17073C   21022.67633942  .00001294  00000-0  10339-3 0    17\,2 43015  97.7134 292.5210 0252582  53.2896 309.1233 14.80221875171642,97.7134,0.0252582,14.80221875,292.521,53.2896,309.1233
43015,MIRATA,LEO,21023.14952208,1 43015U 17073C   21023.14952208  .00001379  00000-0  10980-3 0  9935\,2 43015  97.7134 292.9762 0252564  51.7532 310.6118 14.80223663171712,97.7134,0.0252564,14.80223663,292.9762,51.7532,310.6118
43015,MIRATA,LEO,21023.48750910,1 43015U 17073C   21023.48750910  .00001505  00000-0  11936-3 0    11\,2 43015  97.7134 293.3014 0252547  50.6540 311.6759 14.80225315171768,97.7134,0.0252547,14.80225315,293.3014,50.654,311.6759
43015,MIRATA,LEO,21023.69030139,1 43015U 17073C   21023.69030139  .00001509  00000-0  11973-3 0    13\,2 43015  97.7134 293.4965 0252541  49.9946 312.3138 14.80225906171797,97.7134,0.0252541,14.80225906,293.4965,49.9946,312.3138
43015,MIRATA,LEO,21024.50146830,1 43015U 17073C   21024.50146830  .00001584  00000-0  12537-3 0    10\,2 43015  97.7135 294.2769 0252496  47.3583 314.8613 14.80228715171917,97.7135,0.0252496,14.80228715,294.2769,47.3583,314.8613
43015,MIRATA,LEO,21024.70425969,1 43015U 17073C   21024.70425969  .00001606  00000-0  12708-3 0    10\,2 43015  97.7134 294.4720 0252491  46.6968 315.4999 14.80229476171941,97.7134,0.0252491,14.80229476,294.472,46.6968,315.4999
43015,MIRATA,LEO,21025.44782706,1 43015U 17073C   21025.44782706  .00001693  00000-0  13372-3 0    11\,2 43015  97.7134 295.1874 0252447  44.2809 317.8299 14.80232152172055,97.7134,0.0252447,14.80232152,295.1874,44.2809,317.8299
43015,MIRATA,LEO,21025.71821373,1 43015U 17073C   21025.71821373  .00002066  00000-0  16197-3 0    18\,2 43015  97.7134 295.4476 0252424  43.3992 318.6793 14.80235296172098,97.7134,0.0252424,14.80235296,295.4476,43.3992,318.6793
43015,MIRATA,LEO,21026.46177633,1 43015U 17073C   21026.46177633  .00002624  00000-0  20424-3 0    12\,2 43015  97.7134 296.1629 0252371  40.9834 321.0045 14.80241229172209,97.7134,0.0252371,14.80241229,296.1629,40.9834,321.0045
